NORAD_CAT_ID,OBJECT_NAME,OBJECT_TYPE,EPOCH,MEAN_MOTION,ECCENTRICITY,INCLINATION,RA_OF_ASC_NODE,ARG_OF_PERICENTER,MEAN_ANOMALY,BSTAR,MEAN_MOTION_DOT,MEAN_MOTION_DDOT,TLE_LINE0,TLE_LINE1,TLE_LINE2,SEMIMAJOR_AXIS,PERIOD,APOGEE,PERIGEE,DECAYED
53255.0,STARLINK-4142,PAYLOAD,2022-09-19 06:00:02,15.37223839,0.0001114,53.2172,125.1488,90.3861,332.6638,-0.031474,-0.01068973,0.0,0 STARLINK-4142,1 53255U 22086P   22262.25002315 -.01068973  00000-0 -31474-1 0  9996,2 53255  53.2172 125.1488 0001114  90.3861 332.6638 15.37223839  9525,6832.46,93.675,455.086,453.564,0.0
53255.0,STARLINK-4142,PAYLOAD,2022-09-19 14:00:01,15.36463896,0.0001259,53.2174,123.5844,78.46300000000002,29.7605,-0.032231,-0.01068082,0.0,0 STARLINK-4142,1 53255U 22086P   22262.58334491 -.01068082  00000-0 -32231-1 0  9998,2 53255  53.2174 123.5844 0001259  78.4630  29.7605 15.36463896  1300,6834.7130000000025,93.722,457.43800000000016,455.717,0.0
53255.0,STARLINK-4142,PAYLOAD,2022-09-19 22:00:00,15.35704908,0.00014,53.2172,122.0252,70.0121,82.5342,-0.033059,-0.01068911,0.0,0 STARLINK-4142,1 53255U 22086P   22262.91667824 -.01068911  00000-0 -33059-1 0  9994,2 53255  53.2172 122.0252 0001400  70.0121  82.5342 15.35704908  1302,6836.965,93.768,459.787,457.872,0.0
53255.0,STARLINK-4142,PAYLOAD,2022-09-20 06:00:00,15.34945808,0.0001320999999999,53.2173,120.4649,88.1973,107.761,-0.033901,-0.01069597,0.0,0 STARLINK-4142,1 53255U 22086P   22263.25001157 -.01069597  00000-0 -33901-1 0  9990,2 53255  53.2173 120.4649 0001321  88.1973 107.7610 15.34945808  9673,6839.218000000003,93.814,461.987,460.18,0.0
53255.0,STARLINK-4142,PAYLOAD,2022-09-20 14:00:01,15.34185032,0.0001330999999999,53.2173,118.906,89.0596,149.3983,-0.034635,-0.01066704,0.0,0 STARLINK-4142,1 53255U 22086P   22263.58334491 -.01066704  00000-0 -34635-1 0  9998,2 53255  53.2173 118.9060 0001331  89.0596 149.3983 15.34185032  1306,6841.479,93.861,464.255,462.434,0.0
53255.0,STARLINK-4142,PAYLOAD,2022-09-20 22:00:01,15.33425522,0.0001294,53.2174,117.3522,81.047,199.0599,-0.035498,-0.0106709,0.0,0 STARLINK-4142,1 53255U 22086P   22263.91668981 -.01067090  00000-0 -35498-1 0  9996,2 53255  53.2174 117.3522 0001294  81.0470 199.0599 15.33425522  1309,6843.738,93.907,466.489,464.718,0.0
53255.0,STARLINK-4142,PAYLOAD,2022-09-21 06:00:00,15.3267373,0.000113,53.217,115.7985,81.6034,239.1095,-0.036784,-0.01078624,0.0,0 STARLINK-4142,1 53255U 22086P   22264.25001157 -.01078624  00000-0 -36784-1 0  9994,2 53255  53.2170 115.7985 0001130  81.6034 239.1095 15.32673730  9839,6845.976,93.953,468.614,467.067,0.0
53255.0,STARLINK-4142,PAYLOAD,2022-09-21 22:00:00,15.31149106,0.0001379,53.2175,112.6954,54.6601,344.6646,-0.038269,-0.01070345,0.0,0 STARLINK-4142,1 53255U 22086P   22264.91667824 -.01070345  00000-0 -38269-1 0  9998,2 53255  53.2175 112.6954 0001379  54.6601 344.6646 15.31149106  1303,6850.52,94.047,473.329,471.44,0.0
53255.0,STARLINK-4142,PAYLOAD,2022-09-22 06:00:00,15.30405334,0.0001242,53.2172,111.1467,71.6435,5.6095,-0.040046,-0.0109227,0.0,0 STARLINK-4142,1 53255U 22086P   22265.25001157 -.01092270  00000-0 -40046-1 0  9994,2 53255  53.2172 111.1467 0001242  71.6435   5.6095 15.30405334  9987,6852.739000000001,94.093,475.455,473.753,0.0
53255.0,STARLINK-4142,PAYLOAD,2022-09-22 14:00:01,15.296285500000002,0.0001361,53.2172,109.5988,66.4907,47.7926,-0.039951,-0.01066004,0.0,0 STARLINK-4142,1 53255U 22086P   22265.58334491 -.01066004  00000-0 -39951-1 0  9999,2 53255  53.2172 109.5988 0001361  66.4907  47.7926 15.29628550  1307,6855.059,94.141,477.857,475.991,0.0
53255.0,STARLINK-4142,PAYLOAD,2022-09-22 22:00:00,15.28888443,0.0001343,53.2175,108.0562,81.3208,69.062,-0.041999,-0.01092797,0.0,0 STARLINK-4142,1 53255U 22086P   22265.91667824 -.01092797  00000-0 -41999-1 0  9998,2 53255  53.2175 108.0562 0001343  81.3208  69.0620 15.28888443  1308,6857.271,94.186,480.057,478.215,0.0
53255.0,STARLINK-4142,PAYLOAD,2022-09-23 14:00:01,15.27366016,0.0001452,53.2171,104.9689,70.7811,149.0861,-0.043726,-0.01086286,0.0,0 STARLINK-4142,1 53255U 22086P   22266.58334491 -.01086286  00000-0 -43726-1 0  9999,2 53255  53.2171 104.9689 0001452  70.7811 149.0861 15.27366016 10180,6861.8269999999975,94.28,484.68800000000016,482.696,0.0
53255.0,STARLINK-4142,PAYLOAD,2022-09-23 22:00:00,15.26594113,0.0001431999999999,53.2174,103.4315,78.6445,174.6008,-0.044085,-0.01071042,0.0,0 STARLINK-4142,1 53255U 22086P   22266.91667824 -.01071042  00000-0 -44085-1 0  9998,2 53255  53.2174 103.4315 0001432  78.6445 174.6008 15.26594113  1302,6864.14,94.328,486.98800000000006,485.022,0.0
53255.0,STARLINK-4142,PAYLOAD,2022-09-24 14:00:01,15.25099753,0.0001246,53.217,100.3549,75.3544,241.9482,-0.047574,-0.0110167999999999,0.0,0 STARLINK-4142,1 53255U 22086P   22267.58335648 -.01101680  00000-0 -47574-1 0  9996,2 53255  53.2170 100.3549 0001246  75.3544 241.9482 15.25099753  1303,6868.623000000001,94.42,491.344,489.632,0.0
53255.0,STARLINK-4142,PAYLOAD,2022-09-24 22:00:00,15.24311053,0.0001289,53.2176,98.8216,63.8567,284.0323,-0.0469529999999999,-0.01065055,0.0,0 STARLINK-4142,1 53255U 22086P   22267.91667824 -.01065055  00000-0 -46953-1 0  9992,2 53255  53.2176  98.8216 0001289  63.8567 284.0323 15.24311053  1306,6870.9919999999975,94.469,493.74300000000005,491.971,0.0
53255.0,STARLINK-4142,PAYLOAD,2022-09-25 14:00:01,15.22791405,0.0001223,53.2176,95.7565,74.6783,331.7422,-0.049067,-0.01063636,0.0,0 STARLINK-4142,1 53255U 22086P   22268.58334491 -.01063636  00000-0 -49067-1 0  9999,2 53255  53.2176  95.7565 0001223  74.6783 331.7422 15.22791405 10498,6875.562,94.563,498.268,496.587,0.0
53255.0,STARLINK-4142,PAYLOAD,2022-09-25 22:00:01,15.22031478,0.0001341999999999,53.2176,94.229,63.924,10.4556,-0.050187,-0.01063637,0.0,0 STARLINK-4142,1 53255U 22086P   22268.91668981 -.01063637  00000-0 -50187-1 0  9996,2 53255  53.2176  94.2290 0001342  63.9240  10.4556 15.22031478  1304,6877.851,94.61,500.639,498.793,0.0
53255.0,STARLINK-4142,PAYLOAD,2022-09-26 10:00:00,15.20890667,0.0001330999999999,53.2173,91.9366,65.8862,228.5648,-0.051777,-0.01061163,0.0,0 STARLINK-4142,1 53255U 22086P   22269.41667824 -.01061163  00000-0 -51777-1 0  9995,2 53255  53.2173  91.9366 0001331  65.8862 228.5648 15.20890667 10628,6881.29,94.681,504.071,502.239,0.0
53255.0,STARLINK-4142,PAYLOAD,2022-09-26 14:00:01,15.2056086,0.0001339,53.217,91.1754,65.7993,61.5439,-0.055628,-0.01138091,0.0,0 STARLINK-4142,1 53255U 22086P   22269.58334491 -.01138091  00000-0 -55628-1 0  9998,2 53255  53.2170  91.1754 0001339  65.7993  61.5439 15.20560860  1307,6882.285,94.702,505.071,503.228,0.0
53255.0,STARLINK-4142,PAYLOAD,2022-09-26 22:00:00,15.19817661,0.0001345,53.2172,89.654,68.116,84.3777,-0.0582009999999999,-0.01162973,0.0,0 STARLINK-4142,1 53255U 22086P   22269.91667824 -.01162973  00000-0 -58201-1 0  9990,2 53255  53.2172  89.6540 0001345  68.1160  84.3777 15.19817661  1304,6884.528,94.748,507.319,505.467,0.0
53255.0,STARLINK-4142,PAYLOAD,2022-09-27 06:00:00,15.18991789,0.0001429,53.2173,88.1291,69.1744,107.6014,-0.054711,-0.01060667,0.0,0 STARLINK-4142,1 53255U 22086P   22270.25001157 -.01060667  00000-0 -54711-1 0  9999,2 53255  53.2173  88.1291 0001429  69.1744 107.6014 15.18991789 10748,6887.023,94.8,509.87300000000016,507.904,0.0
53255.0,STARLINK-4142,PAYLOAD,2022-09-27 14:00:01,15.18240201,0.0001494,53.217,86.6097,74.5972,125.506,-0.056441,-0.01083376,0.0,0 STARLINK-4142,1 53255U 22086P   22270.58334491 -.01083376  00000-0 -56441-1 0  9999,2 53255  53.2170  86.6097 0001494  74.5972 125.5060 15.18240201  1305,6889.295999999999,94.847,512.19,510.132,0.0
53255.0,STARLINK-4142,PAYLOAD,2022-09-27 22:00:01,15.17503396,0.0001656,53.217,85.0935,66.4237,156.15,-0.0594049999999999,-0.01113798,0.0,0 STARLINK-4142,1 53255U 22086P   22270.91668981 -.01113798  00000-0 -59405-1 0  9995,2 53255  53.2170  85.0935 0001656  66.4237 156.1500 15.17503396  1308,6891.526,94.893,514.5319999999998,512.25,0.0
53255.0,STARLINK-4142,PAYLOAD,2022-09-28 06:00:00,15.16713564,0.0001433,53.2172,83.5748,65.5915,178.44400000000005,-0.058435,-0.01074004,0.0,0 STARLINK-4142,1 53255U 22086P   22271.25001157 -.01074004  00000-0 -58435-1 0  9997,2 53255  53.2172  83.5748 0001433  65.5915 178.4440 15.16713564 10894,6893.918000000002,94.942,516.771,514.795,0.0
53255.0,STARLINK-4142,PAYLOAD,2022-09-28 14:00:01,15.15954463,0.0001438,53.2175,82.059,66.071,198.5595,-0.059737,-0.01074267,0.0,0 STARLINK-4142,1 53255U 22086P   22271.58334491 -.01074267  00000-0 -59737-1 0  9990,2 53255  53.2175  82.0590 0001438  66.0710 198.5595 15.15954463  1304,6896.219,94.99,519.076,517.0930000000002,0.0
53255.0,STARLINK-4142,PAYLOAD,2022-09-28 22:00:00,15.15228735,0.000122,53.217,80.5489,70.851,213.4424,-0.063759,-0.01119358,0.0,0 STARLINK-4142,1 53255U 22086P   22271.91667824 -.01119358  00000-0 -63759-1 0  9996,2 53255  53.2170  80.5489 0001220  70.8510 213.4424 15.15228735  1303,6898.420999999999,95.035,521.128,519.445,0.0
53255.0,STARLINK-4142,PAYLOAD,2022-09-29 06:00:00,15.14434375,0.0001277,53.2174,79.0343,70.3775,232.7056,-0.062297,-0.01072882,0.0,0 STARLINK-4142,1 53255U 22086P   22272.25001157 -.01072882  00000-0 -62297-1 0  9991,2 53255  53.2174  79.0343 0001277  70.3775 232.7056 15.14434375 11055,6900.833000000001,95.085,523.58,521.817,0.0
53255.0,STARLINK-4142,PAYLOAD,2022-09-29 14:00:01,15.13688632,0.0001261,53.217,77.5258,73.5873,247.3444,-0.064769,-0.0109072,0.0,0 STARLINK-4142,1 53255U 22086P   22272.58334491 -.01090720  00000-0 -64769-1 0  9994,2 53255  53.2170  77.5258 0001261  73.5873 247.3444 15.13688632  1302,6903.1,95.132,525.835,524.094,0.0
53255.0,STARLINK-4142,PAYLOAD,2022-09-29 22:00:00,15.12917486,0.0001372,53.217,76.0199,59.3792,278.5017,-0.065135,-0.01074565,0.0,0 STARLINK-4142,1 53255U 22086P   22272.91667824 -.01074565  00000-0 -65135-1 0  9997,2 53255  53.2170  76.0199 0001372  59.3792 278.5017 15.12917486  1308,6905.445,95.18,528.258,526.363,0.0
